start=new Date('2023-06-12T00:00:00.000Z').valueOf();
sats=[{"PERIOD":"94.165","MEAN_MOTION":"15.29237825","ARG_OF_PERICENTER":"248.4237","BSTAR":"0.00002776100000","EPOCH":"2023-06-11T17:51:33.499008","EPHEMERIS_TYPE":"0","OBJECT_TYPE":"PAYLOAD","MEAN_ELEMENT_THEORY":"SGP4","FILE":"3930737","REF_FRAME":"TEME","RCS_SIZE":"LARGE","GP_ID":"233729182","OBJECT_NAME":"STARLINK-30058","TLE_LINE2":"2 55708  43.0003  41.9005 0002126 248.4237 111.6389 15.29237825 17244","OBJECT_ID":"2023-026P","CENTER_NAME":"EARTH","MEAN_MOTION_DDOT":"0.0000000000000","LAUNCH_DATE":"2023-02-27","NORAD_CAT_ID":"55708","RA_OF_ASC_NODE":"41.9005","MEAN_ANOMALY":"111.6389","PERIAPSIS":"476.634","MEAN_MOTION_DOT":"0.00000537","ECCENTRICITY":"0.00021260","SITE":"AFETR","REV_AT_EPOCH":"1724","TIME_SYSTEM":"UTC","SEMIMAJOR_AXIS":"6856.226","CLASSIFICATION_TYPE":"U","INCLINATION":"43.0003","DECAY_DATE":null,"APOAPSIS":"479.549","TLE_LINE1":"1 55708U 23026P   23162.74413772  .00000537  00000-0  27761-4 0  9999","ELEMENT_SET_NO":"999","COUNTRY_CODE":"US"},{"OBJECT_NAME":"STARLINK-30047","TLE_LINE2":"2 55709  43.0016  18.3290 0003886 280.2425  79.8004 15.71382673 17529","GP_ID":"233729930","RCS_SIZE":"LARGE","REF_FRAME":"TEME","OBJECT_TYPE":"PAYLOAD","MEAN_ELEMENT_THEORY":"SGP4","FILE":"3930737","EPHEMERIS_TYPE":"0","EPOCH":"2023-06-11T21:03:03.919680","ARG_OF_PERICENTER":"280.2425","BSTAR":"0.00005223200000","MEAN_MOTION":"15.71382673","PERIOD":"91.639","ELEMENT_SET_NO":"999","TLE_LINE1":"1 55709U 23026Q   23162.87712870  .00006410  00000-0  52232-4 0  9992","COUNTRY_CODE":"US","APOAPSIS":"357.563","DECAY_DATE":null,"SEMIMAJOR_AXIS":"6733.081","CLASSIFICATION_TYPE":"U","INCLINATION":"43.0016","TIME_SYSTEM":"UTC","SITE":"AFETR","REV_AT_EPOCH":"1752","ECCENTRICITY":"0.00038860","MEAN_MOTION_DOT":"0.00006410","PERIAPSIS":"352.330","RA_OF_ASC_NODE":"18.3290","MEAN_ANOMALY":"79.8004","NORAD_CAT_ID":"55709","LAUNCH_DATE":"2023-02-27","MEAN_MOTION_DDOT":"0.0000000000000","OBJECT_ID":"2023-026Q","CENTER_NAME":"EARTH"},{"SITE":"AFETR","REV_AT_EPOCH":"1752","TIME_SYSTEM":"UTC","DECAY_DATE":null,"CLASSIFICATION_TYPE":"U","SEMIMAJOR_AXIS":"6733.080","INCLINATION":"42.9988","ELEMENT_SET_NO":"999","TLE_LINE1":"1 55710U 23026R   23162.90052707  .00010963  00000-0  86833-4 0  9996","COUNTRY_CODE":"US","APOAPSIS":"356.858","MEAN_MOTION_DDOT":"0.0000000000000","OBJECT_ID":"2023-026R","CENTER_NAME":"EARTH","NORAD_CAT_ID":"55710","LAUNCH_DATE":"2023-02-27","PERIAPSIS":"353.031","RA_OF_ASC_NODE":"18.5113","MEAN_ANOMALY":"85.4072","ECCENTRICITY":"0.00028420","MEAN_MOTION_DOT":"0.00010963","EPHEMERIS_TYPE":"0","EPOCH":"2023-06-11T21:36:45.538848","REF_FRAME":"TEME","OBJECT_TYPE":"PAYLOAD","FILE":"3930737","MEAN_ELEMENT_THEORY":"SGP4","RCS_SIZE":"LARGE","OBJECT_NAME":"STARLINK-30046","TLE_LINE2":"2 55710  42.9988  18.5113 0002842 274.6471  85.4072 15.71383282 17527","GP_ID":"233729679","PERIOD":"91.639","MEAN_MOTION":"15.71383282","ARG_OF_PERICENTER":"274.6471","BSTAR":"0.00008683300000"},{"EPHEMERIS_TYPE":"0","EPOCH":"2023-06-11T21:05:41.830368","REF_FRAME":"TEME","OBJECT_TYPE":"PAYLOAD","FILE":"3930737","MEAN_ELEMENT_THEORY":"SGP4","RCS_SIZE":"LARGE","TLE_LINE2":"2 55712  43.0007  18.3514 0002660 266.8006  93.2558 15.71378368 17526","OBJECT_NAME":"STARLINK-30037","GP_ID":"233728932","PERIOD":"91.639","MEAN_MOTION":"15.71378368","ARG_OF_PERICENTER":"266.8006","BSTAR":"0.00012052000000","SITE":"AFETR","REV_AT_EPOCH":"1752","TIME_SYSTEM":"UTC","DECAY_DATE":null,"CLASSIFICATION_TYPE":"U","SEMIMAJOR_AXIS":"6733.094","INCLINATION":"43.0007","ELEMENT_SET_NO":"999","TLE_LINE1":"1 55712U 23026T   23162.87895637  .00015397  00000-0  12052-3 0  9998","COUNTRY_CODE":"US","APOAPSIS":"356.750","MEAN_MOTION_DDOT":"0.0000000000000","OBJECT_ID":"2023-026T","CENTER_NAME":"EARTH","NORAD_CAT_ID":"55712","LAUNCH_DATE":"2023-02-27","PERIAPSIS":"353.168","RA_OF_ASC_NODE":"18.3514","MEAN_ANOMALY":"93.2558","ECCENTRICITY":"0.00026600","MEAN_MOTION_DOT":"0.00015397"},{"OBJECT_TYPE":"PAYLOAD","FILE":"3930737","MEAN_ELEMENT_THEORY":"SGP4","REF_FRAME":"TEME","EPOCH":"2023-06-11T21:02:12.195456","EPHEMERIS_TYPE":"0","GP_ID":"233728682","TLE_LINE2":"2 55713  42.9988  17.4445 0001820 272.1395  87.9264 15.71394110 17532","OBJECT_NAME":"STARLINK-30063","RCS_SIZE":"LARGE","MEAN_MOTION":"15.71394110","PERIOD":"91.638","ARG_OF_PERICENTER":"272.1395","BSTAR":"0.00012567000000","TIME_SYSTEM":"UTC","SITE":"AFETR","REV_AT_EPOCH":"1753","APOAPSIS":"356.139","ELEMENT_SET_NO":"999","TLE_LINE1":"1 55713U 23026U   23162.87653004  .00016086  00000-0  12567-3 0  9996","COUNTRY_CODE":"US","CLASSIFICATION_TYPE":"U","SEMIMAJOR_AXIS":"6733.049","INCLINATION":"42.9988","DECAY_DATE":null,"LAUNCH_DATE":"2023-02-27","NORAD_CAT_ID":"55713","OBJECT_ID":"2023-026U","CENTER_NAME":"EARTH","MEAN_MOTION_DDOT":"0.0000000000000","MEAN_MOTION_DOT":"0.00016086","ECCENTRICITY":"0.00018200","RA_OF_ASC_NODE":"17.4445","MEAN_ANOMALY":"87.9264","PERIAPSIS":"353.688"},{"RA_OF_ASC_NODE":"18.3604","MEAN_ANOMALY":"76.8415","PERIAPSIS":"352.762","MEAN_MOTION_DOT":"0.00002446","ECCENTRICITY":"0.00033900","OBJECT_ID":"2023-026V","CENTER_NAME":"EARTH","MEAN_MOTION_DDOT":"0.0000000000000","LAUNCH_DATE":"2023-02-27","NORAD_CAT_ID":"55714","CLASSIFICATION_TYPE":"U","SEMIMAJOR_AXIS":"6733.179","INCLINATION":"43.0018","DECAY_DATE":null,"APOAPSIS":"357.327","TLE_LINE1":"1 55714U 23026V   23162.87927283  .00002446  00000-0  22109-4 0  9999","ELEMENT_SET_NO":"999","COUNTRY_CODE":"US","SITE":"AFETR","REV_AT_EPOCH":"1752","TIME_SYSTEM":"UTC","ARG_OF_PERICENTER":"283.2074","BSTAR":"0.00002210900000","PERIOD":"91.641","MEAN_MOTION":"15.71348380","RCS_SIZE":"LARGE","GP_ID":"233729430","OBJECT_NAME":"STARLINK-30059","TLE_LINE2":"2 55714  43.0018  18.3604 0003390 283.2074  76.8415 15.71348380 17529","EPOCH":"2023-06-11T21:06:09.172512","EPHEMERIS_TYPE":"0","OBJECT_TYPE":"PAYLOAD","MEAN_ELEMENT_THEORY":"SGP4","FILE":"3930737","REF_FRAME":"TEME"},{"REF_FRAME":"TEME","OBJECT_TYPE":"PAYLOAD","MEAN_ELEMENT_THEORY":"SGP4","FILE":"3930529","EPHEMERIS_TYPE":"0","EPOCH":"2023-06-11T12:39:34.307424","OBJECT_NAME":"STARLINK-5592","TLE_LINE2":"2 55741  69.9997 251.3585 0003410 268.6496  91.4272 14.98332047 16116","GP_ID":"233697287","RCS_SIZE":"LARGE","MEAN_MOTION":"14.98332047","PERIOD":"96.107","ARG_OF_PERICENTER":"268.6496","BSTAR":"0.00009109100000","TIME_SYSTEM":"UTC","SITE":"AFWTR","REV_AT_EPOCH":"1611","ELEMENT_SET_NO":"999","TLE_LINE1":"1 55741U 23028A   23162.52748041  .00000994  00000-0  91091-4 0  9998","COUNTRY_CODE":"US","APOAPSIS":"574.422","DECAY_DATE":null,"SEMIMAJOR_AXIS":"6950.187","CLASSIFICATION_TYPE":"U","INCLINATION":"69.9997","NORAD_CAT_ID":"55741","LAUNCH_DATE":"2023-03-03","MEAN_MOTION_DDOT":"0.0000000000000","OBJECT_ID":"2023-028A","CENTER_NAME":"EARTH","ECCENTRICITY":"0.00034100","MEAN_MOTION_DOT":"0.00000994","PERIAPSIS":"569.682","RA_OF_ASC_NODE":"251.3585","MEAN_ANOMALY":"91.4272"},{"MEAN_MOTION_DDOT":"0.0000000000000","CENTER_NAME":"EARTH","OBJECT_ID":"2023-028B","NORAD_CAT_ID":"55742","LAUNCH_DATE":"2023-03-03","PERIAPSIS":"569.655","MEAN_ANOMALY":"91.7071","RA_OF_ASC_NODE":"251.3837","ECCENTRICITY":"0.00034420","MEAN_MOTION_DOT":"0.00000701","REV_AT_EPOCH":"1592","SITE":"AFWTR","TIME_SYSTEM":"UTC","DECAY_DATE":null,"INCLINATION":"69.9992","CLASSIFICATION_TYPE":"U","SEMIMAJOR_AXIS":"6950.182","COUNTRY_CODE":"US","ELEMENT_SET_NO":"999","TLE_LINE1":"1 55742U 23028B   23162.53566142  .00000701  00000-0  66563-4 0  9992","APOAPSIS":"574.439","PERIOD":"96.107","MEAN_MOTION":"14.98333580","BSTAR":"0.00006656300000","ARG_OF_PERICENTER":"268.3694","EPHEMERIS_TYPE":"0","EPOCH":"2023-06-11T12:51:21.146688","REF_FRAME":"TEME","FILE":"3930545","MEAN_ELEMENT_THEORY":"SGP4","OBJECT_TYPE":"PAYLOAD","RCS_SIZE":"LARGE","OBJECT_NAME":"STARLINK-5594","TLE_LINE2":"2 55742  69.9992 251.3837 0003442 268.3694  91.7071 14.98333580 15925","GP_ID":"233699290"},{"GP_ID":"233697779","TLE_LINE2":"2 55743  69.9990 251.3981 0003345 269.3093  90.7683 14.98333002 15927","OBJECT_NAME":"STARLINK-5602","RCS_SIZE":"LARGE","OBJECT_TYPE":"PAYLOAD","FILE":"3930529","MEAN_ELEMENT_THEORY":"SGP4","REF_FRAME":"TEME","EPOCH":"2023-06-11T12:57:21.937536","EPHEMERIS_TYPE":"0","ARG_OF_PERICENTER":"269.3093","BSTAR":"0.00005052900000","MEAN_MOTION":"14.98333002","PERIOD":"96.107","APOAPSIS":"574.373","TLE_LINE1":"1 55743U 23028C   23162.53983724  .00000510  00000-0  50529-4 0  9995","ELEMENT_SET_NO":"999","COUNTRY_CODE":"US","SEMIMAJOR_AXIS":"6950.184","CLASSIFICATION_TYPE":"U","INCLINATION":"69.9990","DECAY_DATE":null,"TIME_SYSTEM":"UTC","SITE":"AFWTR","REV_AT_EPOCH":"1592","MEAN_MOTION_DOT":"0.00000510","ECCENTRICITY":"0.00033450","RA_OF_ASC_NODE":"251.3981","MEAN_ANOMALY":"90.7683","PERIAPSIS":"569.724","LAUNCH_DATE":"2023-03-03","NORAD_CAT_ID":"55743","OBJECT_ID":"2023-028C","CENTER_NAME":"EARTH","MEAN_MOTION_DDOT":"0.0000000000000"},{"SITE":"AFWTR","REV_AT_EPOCH":"1592","TIME_SYSTEM":"UTC","DECAY_DATE":null,"SEMIMAJOR_AXIS":"6950.175","CLASSIFICATION_TYPE":"U","INCLINATION":"69.9997","ELEMENT_SET_NO":"999","TLE_LINE1":"1 55744U 23028D   23162.53148693  .00000958  00000-0  88022-4 0  9999","COUNTRY_CODE":"US","APOAPSIS":"574.398","MEAN_MOTION_DDOT":"0.0000000000000","OBJECT_ID":"2023-028D","CENTER_NAME":"EARTH","NORAD_CAT_ID":"55744","LAUNCH_DATE":"2023-03-03","PERIAPSIS":"569.681","RA_OF_ASC_NODE":"251.3728","MEAN_ANOMALY":"92.3897","ECCENTRICITY":"0.00033930","MEAN_MOTION_DOT":"0.00000958","EPHEMERIS_TYPE":"0","EPOCH":"2023-06-11T12:45:20.470752","REF_FRAME":"TEME","OBJECT_TYPE":"PAYLOAD","FILE":"3930545","MEAN_ELEMENT_THEORY":"SGP4","RCS_SIZE":"LARGE","OBJECT_NAME":"STARLINK-5601","TLE_LINE2":"2 55744  69.9997 251.3728 0003393 267.6874  92.3897 14.98335918 15928","GP_ID":"233699030","PERIOD":"96.107","MEAN_MOTION":"14.98335918","ARG_OF_PERICENTER":"267.6874","BSTAR":"0.00008802200000"}];
